{"type": "FeatureCollection", "features": [{"type": "Feature", "properties": {"norad_id": 37846, "name": "GSAT0101 (GALILEO-PFM)", "group": "galileo", "lat": 15.115457233090902, "lon": 156.5349791494699, "alt_km": 23228.873554465412, "timestamp": "2025-12-19T14:48:36.510257+00:00", "meta": {"OBJECT_NAME": "GSAT0101 (GALILEO-PFM)", "OBJECT_ID": "2011-060A", "EPOCH": "2025-12-18T18:24:05.977440", "MEAN_MOTION": 1.70475828, "ECCENTRICITY": 0.00031616, "INCLINATION": 57.0514, "RA_OF_ASC_NODE": 346.6564, "ARG_OF_PERICENTER": 318.6876, "MEAN_ANOMALY": 41.3019, "EPHEMERIS_TYPE": 0, "CLASSIFICATION_TYPE": "U", "NORAD_CAT_ID": 37846, "ELEMENT_SET_NO": 999, "REV_AT_EPOCH": 8804, "BSTAR": 0, "MEAN_MOTION_DOT": -7.5e-07, "MEAN_MOTION_DDOT": 0}, "tle": {"line1": "1 37846U 11060A   25352.76673585 -.00000075  00000+0  00000+0 0  9991", "line2": "2 37846  57.0514 346.6564 0003161 318.6876  41.3019  1.70475828 88046"}}, "geometry": {"type": "Point", "coordinates": [156.5349791494699, 15.115457233090902]}}, {"type": "Feature", "properties": {"norad_id": 37847, "name": "GSAT0102 (GALILEO-FM2)", "group": "galileo", "lat": -22.646103747979534, "lon": -177.67239306853605, "alt_km": 23228.80665900125, "timestamp": "2025-12-19T14:48:36.510280+00:00", "meta": {"OBJECT_NAME": "GSAT0102 (GALILEO-FM2)", "OBJECT_ID": "2011-060B", "EPOCH": "2025-12-18T09:18:10.933920", "MEAN_MOTION": 1.7047603, "ECCENTRICITY": 0.0005099, "INCLINATION": 57.0522, "RA_OF_ASC_NODE": 346.6671, "ARG_OF_PERICENTER": 311.9548, "MEAN_ANOMALY": 220.8374, "EPHEMERIS_TYPE": 0, "CLASSIFICATION_TYPE": "U", "NORAD_CAT_ID": 37847, "ELEMENT_SET_NO": 999, "REV_AT_EPOCH": 8804, "BSTAR": 0, "MEAN_MOTION_DOT": -7.6e-07, "MEAN_MOTION_DDOT": 0}, "tle": {"line1": "1 37847U 11060B   25352.38762655 -.00000076  00000+0  00000+0 0  9998", "line2": "2 37847  57.0522 346.6671 0005099 311.9548 220.8374  1.70476030 88043"}}, "geometry": {"type": "Point", "coordinates": [-177.67239306853605, -22.646103747979534]}}, {"type": "Feature", "properties": {"norad_id": 38857, "name": "GSAT0103 (GALILEO-FM3)", "group": "galileo", "lat": 34.12477065160789, "lon": -101.04985010895636, "alt_km": 23223.73268237848, "timestamp": "2025-12-19T14:48:36.510294+00:00", "meta": {"OBJECT_NAME": "GSAT0103 (GALILEO-FM3)", "OBJECT_ID": "2012-055A", "EPOCH": "2025-12-18T05:17:11.481792", "MEAN_MOTION": 1.70473412, "ECCENTRICITY": 0.00028558, "INCLINATION": 55.6954, "RA_OF_ASC_NODE": 106.5161, "ARG_OF_PERICENTER": 269.0808, "MEAN_ANOMALY": 90.8455, "EPHEMERIS_TYPE": 0, "CLASSIFICATION_TYPE": "U", "NORAD_CAT_ID": 38857, "ELEMENT_SET_NO": 999, "REV_AT_EPOCH": 8192, "BSTAR": 0, "MEAN_MOTION_DOT": -7e-08, "MEAN_MOTION_DDOT": 0}, "tle": {"line1": "1 38857U 12055A   25352.22027178 -.00000007  00000+0  00000+0 0  9996", "line2": "2 38857  55.6954 106.5161 0002855 269.0808  90.8455  1.70473412 81920"}}, "geometry": {"type": "Point", "coordinates": [-101.04985010895636, 34.12477065160789]}}, {"type": "Feature", "properties": {"norad_id": 40128, "name": "GSAT0201 (GALILEO 5)", "group": "galileo", "lat": 27.614702479686073, "lon": 73.8184639498419, "alt_km": 17437.895171219745, "timestamp": "2025-12-19T14:48:36.510307+00:00", "meta": {"OBJECT_NAME": "GSAT0201 (GALILEO 5)", "OBJECT_ID": "2014-050A", "EPOCH": "2025-12-14T00:08:14.916480", "MEAN_MOTION": 1.85519648, "ECCENTRICITY": 0.16480052, "INCLINATION": 49.0753, "RA_OF_ASC_NODE": 281.012, "ARG_OF_PERICENTER": 172.3262, "MEAN_ANOMALY": 190.5827, "EPHEMERIS_TYPE": 0, "CLASSIFICATION_TYPE": "U", "NORAD_CAT_ID": 40128, "ELEMENT_SET_NO": 999, "REV_AT_EPOCH": 7488, "BSTAR": 0, "MEAN_MOTION_DOT": -9.9e-07, "MEAN_MOTION_DDOT": 0}, "tle": {"line1": "1 40128U 14050A   25348.00572820 -.00000099  00000+0  00000+0 0  9998", "line2": "2 40128  49.0753 281.0120 1648005 172.3262 190.5827  1.85519648 74882"}}, "geometry": {"type": "Point", "coordinates": [73.8184639498419, 27.614702479686073]}}, {"type": "Feature", "properties": {"norad_id": 40129, "name": "GSAT0202 (GALILEO 6)", "group": "galileo", "lat": -12.687882320400192, "lon": -91.38890004964742, "alt_km": 26123.15637247831, "timestamp": "2025-12-19T14:48:36.510319+00:00", "meta": {"OBJECT_NAME": "GSAT0202 (GALILEO 6)", "OBJECT_ID": "2014-050B", "EPOCH": "2025-12-18T13:46:22.484640", "MEAN_MOTION": 1.85520466, "ECCENTRICITY": 0.16491259, "INCLINATION": 49.0858, "RA_OF_ASC_NODE": 279.9095, "ARG_OF_PERICENTER": 173.2442, "MEAN_ANOMALY": 189.3393, "EPHEMERIS_TYPE": 0, "CLASSIFICATION_TYPE": "U", "NORAD_CAT_ID": 40129, "ELEMENT_SET_NO": 999, "REV_AT_EPOCH": 7713, "BSTAR": 0, "MEAN_MOTION_DOT": -5.9e-07, "MEAN_MOTION_DDOT": 0}, "tle": {"line1": "1 40129U 14050B   25352.57387135 -.00000059  00000+0  00000+0 0  9995", "line2": "2 40129  49.0858 279.9095 1649125 173.2442 189.3393  1.85520466 77135"}}, "geometry": {"type": "Point", "coordinates": [-91.38890004964742, -12.687882320400192]}}, {"type": "Feature", "properties": {"norad_id": 40544, "name": "GSAT0203 (GALILEO 7)", "group": "galileo", "lat": -47.619296448314266, "lon": -59.28023143756612, "alt_km": 23209.873652090526, "timestamp": "2025-12-19T14:48:36.510331+00:00", "meta": {"OBJECT_NAME": "GSAT0203 (GALILEO 7)", "OBJECT_ID": "2015-017A", "EPOCH": "2025-12-17T08:55:11.074944", "MEAN_MOTION": 1.7047611, "ECCENTRICITY": 0.00064774, "INCLINATION": 56.8452, "RA_OF_ASC_NODE": 346.5536, "ARG_OF_PERICENTER": 273.4606, "MEAN_ANOMALY": 86.4809, "EPHEMERIS_TYPE": 0, "CLASSIFICATION_TYPE": "U", "NORAD_CAT_ID": 40544, "ELEMENT_SET_NO": 999, "REV_AT_EPOCH": 6610, "BSTAR": 0, "MEAN_MOTION_DOT": -7.9e-07, "MEAN_MOTION_DDOT": 0}, "tle": {"line1": "1 40544U 15017A   25351.37165596 -.00000079  00000+0  00000+0 0  9994", "line2": "2 40544  56.8452 346.5536 0006477 273.4606  86.4809  1.70476110 66108"}}, "geometry": {"type": "Point", "coordinates": [-59.28023143756612, -47.619296448314266]}}, {"type": "Feature", "properties": {"norad_id": 40545, "name": "GSAT0204 (GALILEO 8)", "group": "galileo", "lat": 31.641135625005326, "lon": 142.75283565352092, "alt_km": 23228.52389624939, "timestamp": "2025-12-19T14:48:36.510343+00:00", "meta": {"OBJECT_NAME": "GSAT0204 (GALILEO 8)", "OBJECT_ID": "2015-017B", "EPOCH": "2025-12-18T05:07:45.807168", "MEAN_MOTION": 1.70475664, "ECCENTRICITY": 0.00061628, "INCLINATION": 56.8529, "RA_OF_ASC_NODE": 346.5485, "ARG_OF_PERICENTER": 265.6138, "MEAN_ANOMALY": 94.3298, "EPHEMERIS_TYPE": 0, "CLASSIFICATION_TYPE": "U", "NORAD_CAT_ID": 40545, "ELEMENT_SET_NO": 999, "REV_AT_EPOCH": 2916, "BSTAR": 0, "MEAN_MOTION_DOT": -7.7e-07, "MEAN_MOTION_DDOT": 0}, "tle": {"line1": "1 40545U 15017B   25352.21372462 -.00000077  00000+0  00000+0 0  9999", "line2": "2 40545  56.8529 346.5485 0006162 265.6138  94.3298  1.70475664 29169"}}, "geometry": {"type": "Point", "coordinates": [142.75283565352092, 31.641135625005326]}}, {"type": "Feature", "properties": {"norad_id": 40889, "name": "GSAT0205 (GALILEO 9)", "group": "galileo", "lat": -52.85869805306301, "lon": 159.00181690358895, "alt_km": 23235.886782663518, "timestamp": "2025-12-19T14:48:36.510354+00:00", "meta": {"OBJECT_NAME": "GSAT0205 (GALILEO 9)", "OBJECT_ID": "2015-045A", "EPOCH": "2025-12-17T23:34:28.865856", "MEAN_MOTION": 1.70473246, "ECCENTRICITY": 0.00059886, "INCLINATION": 55.0015, "RA_OF_ASC_NODE": 226.6133, "ARG_OF_PERICENTER": 39.6119, "MEAN_ANOMALY": 320.5359, "EPHEMERIS_TYPE": 0, "CLASSIFICATION_TYPE": "U", "NORAD_CAT_ID": 40889, "ELEMENT_SET_NO": 999, "REV_AT_EPOCH": 6392, "BSTAR": 0, "MEAN_MOTION_DOT": 5.9e-07, "MEAN_MOTION_DDOT": 0}, "tle": {"line1": "1 40889U 15045A   25351.98227854  .00000059  00000+0  00000+0 0  9997", "line2": "2 40889  55.0015 226.6133 0005988  39.6119 320.5359  1.70473246 63920"}}, "geometry": {"type": "Point", "coordinates": [159.00181690358895, -52.85869805306301]}}, {"type": "Feature", "properties": {"norad_id": 40890, "name": "GSAT0206 (GALILEO 10)", "group": "galileo", "lat": 25.718058357085685, "lon": 26.867347301706648, "alt_km": 23222.406454402517, "timestamp": "2025-12-19T14:48:36.510365+00:00", "meta": {"OBJECT_NAME": "GSAT0206 (GALILEO 10)", "OBJECT_ID": "2015-045B", "EPOCH": "2025-12-18T18:56:55.411008", "MEAN_MOTION": 1.70473154, "ECCENTRICITY": 0.00042207, "INCLINATION": 55.0004, "RA_OF_ASC_NODE": 226.586, "ARG_OF_PERICENTER": 42.9195, "MEAN_ANOMALY": 317.2206, "EPHEMERIS_TYPE": 0, "CLASSIFICATION_TYPE": "U", "NORAD_CAT_ID": 40890, "ELEMENT_SET_NO": 999, "REV_AT_EPOCH": 6396, "BSTAR": 0, "MEAN_MOTION_DOT": 6.4e-07, "MEAN_MOTION_DDOT": 0}, "tle": {"line1": "1 40890U 15045B   25352.78953022  .00000064  00000+0  00000+0 0  9997", "line2": "2 40890  55.0004 226.5860 0004220  42.9195 317.2206  1.70473154 63961"}}, "geometry": {"type": "Point", "coordinates": [26.867347301706648, 25.718058357085685]}}, {"type": "Feature", "properties": {"norad_id": 41174, "name": "GSAT0209 (GALILEO 12)", "group": "galileo", "lat": 35.616444494951146, "lon": 135.39619861910927, "alt_km": 23213.878833965355, "timestamp": "2025-12-19T14:48:36.510376+00:00", "meta": {"OBJECT_NAME": "GSAT0209 (GALILEO 12)", "OBJECT_ID": "2015-079A", "EPOCH": "2025-12-17T18:49:30.009504", "MEAN_MOTION": 1.70474581, "ECCENTRICITY": 0.00024688, "INCLINATION": 55.7156, "RA_OF_ASC_NODE": 106.2426, "ARG_OF_PERICENTER": 347.1145, "MEAN_ANOMALY": 12.8381, "EPHEMERIS_TYPE": 0, "CLASSIFICATION_TYPE": "U", "NORAD_CAT_ID": 41174, "ELEMENT_SET_NO": 999, "REV_AT_EPOCH": 6168, "BSTAR": 0, "MEAN_MOTION_DOT": -9e-08, "MEAN_MOTION_DDOT": 0}, "tle": {"line1": "1 41174U 15079A   25351.78437511 -.00000009  00000+0  00000+0 0  9999", "line2": "2 41174  55.7156 106.2426 0002468 347.1145  12.8381  1.70474581 61685"}}, "geometry": {"type": "Point", "coordinates": [135.39619861910927, 35.616444494951146]}}]}